0 ISO
1 23715U 95062A   13282.65258275 -.00000273  00000-0 -22679-2 0  5017
2 23715 003.2688 311.1329 8340110 008.0772 359.9951 01.01962379 66391
0 ISO
1 23715U 95062A   13283.63325210 -.00000227  00000-0 -51807-3 0  5026
2 23715 003.2615 310.9886 8339892 008.3701 359.9551 01.01961512 66402
0 ISO
1 23715U 95062A   13283.63330395 -.00000309  00000-0  00000+0 0  5032
2 23715 003.1995 311.0630 8341301 008.2923 359.9442 01.01963683 66404
0 ISO
1 23715U 95062A   13285.59473641 -.00000135  00000-0  17476-2 0  5047
2 23715 003.2462 310.6949 8339555 008.9600 359.9232 01.01960337 66421
0 ISO
1 23715U 95062A   13286.57555442 -.00000122  00000-0  12182-2 0  5052
2 23715 003.2380 310.5446 8339435 009.2582 359.9280 01.01960489 66433
0 ISO
1 23715U 95062A   13289.51808377 -.00000279  00000-0 -63520-2 0  5064
2 23715 003.2120 310.0755 8338929 010.1739 359.9453 01.01963467 66469
0 ISO
1 23715U 95062A   13290.49875786 -.00000183  00000-0  00000+0 0  5087
2 23715 003.1550 309.7386 8339737 010.6577 359.9258 01.01962341 66477
0 ISO
1 23715U 95062A   13290.49877488 -.00000181  00000-0  00000+0 0  5075
2 23715 003.1968 309.8222 8338968 010.5978 359.9279 01.01962306 66114
0 ISO
1 23715U 95062A   13290.49886429 -.00000342  00000-0 -83193-2 0  5077
2 23715 003.2033 309.9174 8338636 010.4804 359.9312 01.01964208 66474
0 ISO
1 23715U 95062A   13291.47958457 -.00000369  00000-0 -85282-2 0  5088
2 23715 003.1947 309.7610 8338319 010.7846 359.9034 01.01964189 66487
0 ISO
1 23715U 95062A   13294.42150332 -.00000242  00000-0 -48409-3 0  5094
2 23715 003.1684 309.2867 8337625 011.7012 359.7657 01.01960692 66517
0 ISO
1 23715U 95062A   13295.40214096 -.00000188  00000-0  22119-2 0  5100
2 23715 003.1593 309.1237 8337483 012.0121 359.7176 01.01959556 66527
